SL-16 R/B               
1 28353U 04021B   25217.56843642  .00000011  00000+0  30293-4 0  9995
2 28353  71.0021 326.0273 0005168 343.8526  16.2431 14.14550655 92271
CZ-4B R/B               
1 28415U 04035C   25217.11734988  .00006960  00000+0  27842-3 0  9996
2 28415  97.3776 249.2958 0035538  17.6742 342.5723 15.24813912146868
CZ-2C R/B               
1 28480U 04046B   25217.51277869  .00000172  00000+0  78569-4 0  9996
2 28480  98.1916 140.9962 0140950  74.2788 287.3890 14.26851522 77674
ARIANE 5 R/B            
1 28499U 04049H   25217.39826468  .00000590  00000+0  72860-4 0  9992
2 28499  98.2400  13.1814 0084573 332.7311  26.9474 14.84598195113698
CZ-2D R/B               
1 28738U 05024B   25217.51884268  .00017973  00000+0  37666-3 0  9995
2 28738  97.3688 222.3079 0008406  99.7803 260.4395 15.45435556106256
ALOS (DAICHI)           
1 28931U 06002A   25217.42825613  .00001417  00000+0  25084-3 0  9993
2 28931  98.0868 170.0571 0000773  96.7909 263.3384 14.68864244 41722
H-2A R/B                
1 28932U 06002B   25217.61707649  .00006425  00000+0  36919-3 0  9996
2 28932  98.2171 342.2989 0056857 254.0526 105.4433 15.11520891 61747
RESURS-DK 1             
1 29228U 06021A   25217.59573414  .00002031  00000+0  12701-3 0  9996
2 29228  69.9331  75.3169 0001748  93.5671 266.5694 15.11186883 54861
CZ-4B R/B               
1 29507U 06046C   25217.37627303  .00003652  00000+0  20114-3 0  9993
2 29507  97.5929 257.8640 0033699 296.5990  63.1790 15.14194138 27280
CZ-2C R/B               
1 31114U 07010B   25217.57649377  .00000117  00000+0  72789-4 0  9998
2 31114  98.3845 336.8314 0058682 201.5678 158.3026 14.20142867949041
COSMO-SKYMED 1          
1 31598U 07023A   25217.55491792  .00000500  00000+0  51593-4 0  9998
2 31598  97.8889  42.2002 0001356  85.9672 274.1703 14.94626941982592
GENESIS 2               
1 31789U 07028A   25217.49643081  .00218626  25375-4  57393-3 0  9998
2 31789  64.4660 211.3612 0023841 300.1607  59.7190 15.94117178  1946
COSMOS 2428             
1 31792U 07029A   25217.46211086  .00000165  00000+0  11442-3 0  9991
2 31792  70.9441 297.2435 0005179 232.0079 128.0575 14.12897992933551
SL-16 R/B               
1 31793U 07029B   25217.58737152 -.00000248  00000+0 -10382-3 0  9998
2 31793  70.9739 266.6317 0002696 277.7915 234.0600 14.14788654934809
KORONAS-FOTON           
1 33504U 09003A   25217.24686127  .00008266  00000+0  22321-3 0  9994
2 33504  82.4342 139.8399 0010778 203.6687 156.4062 15.37527767912429
CZ-2C R/B               
1 37731U 11030B   25217.51706111  .00001353  00000+0  18030-3 0  9991
2 37731  97.8181 174.7185 0052773 335.3940 113.9756 14.80337475758106
H-2A R/B                
1 38341U 12025E   25217.42659658  .00001958  00000+0  18989-3 0  9991
2 38341  98.4380 162.9962 0044976 300.5701  59.1082 14.93279943715924
SHIJIAN-16 (SJ-16)      
1 39358U 13057A   25217.56237139  .00000798  00000+0  82503-4 0  9992
2 39358  74.9697 233.9494 0018365 277.6777  82.2325 14.91480104639273
SL-4 R/B                
1 39679U 14021B   25217.51959899  .00008250  00000+0  22449-3 0  9992
2 39679  51.6100 306.3297 0111420  38.7651 322.1258 15.32416788623052
ALOS-2                  
1 39766U 14029A   25217.56427895  .00000916  00000+0  12949-3 0  9993
2 39766  97.9228 314.2598 0001606  96.9219 263.2175 14.79461570604944
YAOGAN-29               
1 41038U 15069A   25217.59144943  .00000423  00000+0  59129-4 0  9991
2 41038  98.0338 240.2415 0001450  30.1323 329.9973 14.82687097523856
ASTRO-H (HITOMI)        
1 41337U 16012A   25217.55200318  .00002561  00000+0  15526-3 0  9994
2 41337  31.0009 309.4605 0009898 321.9258  38.0680 15.08283546519556
HXMT (HUIYAN)           
1 42758U 17034A   25217.25506585  .00005307  00000+0  29312-3 0  9998
2 42758  43.0142 137.0071 0035365 307.6735  52.0906 15.14261637449694
CZ-2C R/B               
1 43521U 18054D   25217.49398751  .00029397  00000+0  41044-3 0  9991
2 43521  35.1388 322.5706 0031104 357.4434   2.6131 15.55274760394820
SAOCOM 1A               
1 43641U 18076A   25217.52415989 -.00000356  00000+0 -38216-4 0  9999
2 43641  97.8897  43.7921 0001385  91.3088 268.8284 14.82144284369341
H-2A R/B                
1 43682U 18084L   25217.43347107  .00012607  00000+0  40693-3 0  9990
2 43682  98.8802  25.3829 0031743  49.6459 310.7542 15.31830191372572
SAOCOM 1B               
1 46265U 20059A   25217.55544848  .00000418  00000+0  59073-4 0  9999
2 46265  97.8901  42.9275 0001411  90.6876 269.4499 14.82152571266734
CSS (TIANHE)            
1 48274U 21035A   25217.55336651  .00022407  00000+0  29912-3 0  9997
2 48274  41.4650  81.5004 0004524  73.7951 286.3384 15.57539474243858
COSMOS 2550             
1 48865U 21056A   25217.61506141  .00005474  00000+0  17199-3 0  9995
2 48865  67.1444 334.5811 0008410 270.3211  89.6980 15.33845872230329
CZ-2C R/B               
1 52794U 22058K   25217.59953931  .00013463  00000+0  30916-3 0  9993
2 52794  50.1947 338.1004 0055004  19.1085 341.1927 15.41402512176671
GSLV R/B                
1 54149U 22138AN  25217.51838549  .00002066  00000+0  18561-3 0  9996
2 54149  87.3761 238.7345 0020819 210.5050 149.4971 14.95028060151616
XRISM                   
1 57800U 23137A   25217.48125346  .00003079  00000+0  18686-3 0  9996
2 57800  31.0009 238.8167 0007911  27.8490 332.2570 15.08488030105081
ACS3                    
1 59588U 24077B   25217.45184107  .00012344  00000+0  11769-1 0  9990
2 59588  97.4279 201.2536 0072659  36.1938 324.4105 13.79493092 64289
